NORAD_CAT_ID,OBJECT_NAME,OBJECT_TYPE,EPOCH,MEAN_MOTION,ECCENTRICITY,INCLINATION,RA_OF_ASC_NODE,ARG_OF_PERICENTER,MEAN_ANOMALY,BSTAR,MEAN_MOTION_DOT,MEAN_MOTION_DDOT,TLE_LINE0,TLE_LINE1,TLE_LINE2,SEMIMAJOR_AXIS,PERIOD,APOGEE,PERIGEE,DECAYED
53864.0,STARLINK-4779,PAYLOAD,2023-09-08 05:02:43,15.08847504,0.0001265,53.2173,64.4553,85.9671,274.1466,0.00011505,1.544e-05,0.0,0 STARLINK-4779,1 53864U 22114AY  23251.21022228  .00001544  00000-0  11505-3 0  9997,2 53864  53.2173  64.4553 0001265  85.9671 274.1466 15.08847504 55211,6917.857,95.437,540.598,538.847,0.0
53864.0,STARLINK-4779,PAYLOAD,2023-09-08 17:45:48,15.08840985,0.0001569,53.2157,62.0747,94.0984,266.0188,0.00011482,1.54e-05,0.0,0 STARLINK-4779,1 53864U 22114AY  23251.74014698  .00001540  00000-0  11482-3 0  9997,2 53864  53.2157  62.0747 0001569  94.0984 266.0188 15.08840985 54752,6917.877,95.437,540.828,538.657,0.0
53864.0,STARLINK-4779,PAYLOAD,2023-09-09 11:15:03,15.08835679,0.0001311,53.2173,58.8051,96.4883,263.6259,0.00016196,2.29e-05,0.0,0 STARLINK-4779,1 53864U 22114AY  23252.46878780  .00002290  00000-0  16196-3 0  9997,2 53864  53.2173  58.8051 0001311  96.4883 263.6259 15.08835679 55409,6917.894,95.438,540.666,538.852,0.0
53864.0,STARLINK-4779,PAYLOAD,2023-09-10 11:05:50,15.08839205,0.0001432,53.2183,54.3449,92.6267,267.4889,4.8099e-05,4.78e-06,0.0,0 STARLINK-4779,1 53864U 22114AY  23253.46238745  .00000478  00000-0  48099-4 0  9993,2 53864  53.2183  54.3449 0001432  92.6267 267.4889 15.08839205 55017,6917.883,95.438,540.738,538.757,0.0
53864.0,STARLINK-4779,PAYLOAD,2023-09-11 14:07:23,15.08837659,0.0001376,53.2191,49.291,91.9847,268.1303,3.9928e-05,3.48e-06,0.0,0 STARLINK-4779,1 53864U 22114AY  23254.58847028  .00000348  00000-0  39928-4 0  9994,2 53864  53.2191  49.2910 0001376  91.9847 268.1303 15.08837659 55723,6917.888,95.438,540.704,538.801,0.0
53864.0,STARLINK-4779,PAYLOAD,2023-09-11 17:18:09,15.0884076,0.0001321,53.2194,48.6977,91.9954,268.119,5.8238e-05,6.39e-06,0.0,0 STARLINK-4779,1 53864U 22114AY  23254.72094805  .00000639  00000-0  58238-4 0  9995,2 53864  53.2194  48.6977 0001321  91.9954 268.1190 15.08840760 55205,6917.878,95.438,540.657,538.829,0.0
53864.0,STARLINK-4779,PAYLOAD,2023-09-12 13:58:10,15.08840179,0.000126,53.2187,44.8298,89.4511,270.6626,7.5033e-05,9.06e-06,0.0,0 STARLINK-4779,1 53864U 22114AY  23255.58206945  .00000906  00000-0  75033-4 0  9999,2 53864  53.2187  44.8298 0001260  89.4511 270.6626 15.08840179 55873,6917.88,95.438,540.616,538.873,0.0
53864.0,STARLINK-4779,PAYLOAD,2023-09-12 17:08:56,15.08844595,0.0001296,53.2193,44.2368,92.902,267.212,0.00012956,1.775e-05,0.0,0 STARLINK-4779,1 53864U 22114AY  23255.71454556  .00001775  00000-0  12956-3 0  9996,2 53864  53.2193  44.2368 0001296  92.9020 267.2120 15.08844595 55894,6917.866,95.437,540.628,538.835,0.0
53864.0,STARLINK-4779,PAYLOAD,2023-09-13 02:41:15,15.08845145,0.0001329,53.2191,42.4506,95.4533,264.6611,0.00010761,1.425e-05,0.0,0 STARLINK-4779,1 53864U 22114AY  23256.11198500  .00001425  00000-0  10761-3 0  9999,2 53864  53.2191  42.4506 0001329  95.4533 264.6611 15.08845145 55416,6917.865,95.437,540.649,538.81,0.0
53864.0,STARLINK-4779,PAYLOAD,2023-09-13 13:48:57,15.08855093,0.0001235,53.2183,40.3697,88.1442,271.9692,-1.8817e-06,-3.18e-06,0.0,0 STARLINK-4779,1 53864U 22114AY  23256.57566237 -.00000318  00000-0 -18817-5 0  9999,2 53864  53.2183  40.3697 0001235  88.1442 271.9692 15.08855093 56020,6917.834,95.437,540.554,538.845,0.0
53864.0,STARLINK-4779,PAYLOAD,2023-09-13 18:35:06,15.08854897,0.0001391,53.2189,39.4787,93.9487,266.1664,0.0002149,3.135e-05,0.0,0 STARLINK-4779,1 53864U 22114AY  23256.77437848  .00003135  00000-0  21490-3 0  9993,2 53864  53.2189  39.4787 0001391  93.9487 266.1664 15.08854897 56050,6917.835,95.437,540.662,538.738,0.0
53864.0,STARLINK-4779,PAYLOAD,2023-09-14 08:53:35,15.08833123,0.0001632,53.2186,36.8008,91.4567,268.6612,-3.747e-05,-8.84e-06,0.0,0 STARLINK-4779,1 53864U 22114AY  23257.37055122 -.00000884  00000-0 -37470-4 0  9997,2 53864  53.2186  36.8008 0001632  91.4567 268.6612 15.08833123 55603,6917.901,95.438,540.895,538.637,0.0
53864.0,STARLINK-4779,PAYLOAD,2023-09-14 13:39:45,15.08821236,0.000127,53.2184,35.9102,66.1587,293.9538,-0.00022559,-3.874e-05,0.0,0 STARLINK-4779,1 53864U 22114AY  23257.56927897 -.00003874  00000-0 -22559-3 0  9998,2 53864  53.2184  35.9102 0001270  66.1587 293.9538 15.08821236 56178,6917.938,95.439,540.681,538.924,0.0
53864.0,STARLINK-4779,PAYLOAD,2023-09-14 16:50:31,15.08827185,0.0001308,53.2177,35.3135,66.2026,293.9103,-0.00017377,-3.051e-05,0.0,0 STARLINK-4779,1 53864U 22114AY  23257.70175728 -.00003051  00000-0 -17377-3 0  9991,2 53864  53.2177  35.3135 0001308  66.2026 293.9103 15.08827185 55650,6917.92,95.438,540.689,538.88,0.0
53864.0,STARLINK-4779,PAYLOAD,2023-09-15 10:19:46,15.0883782,9.78e-05,53.2172,32.0434,79.9136,280.1967,8.8323e-05,1.118e-05,0.0,0 STARLINK-4779,1 53864U 22114AY  23258.43039500  .00001118  00000-0  88323-4 0  9999,2 53864  53.2172  32.0434 0000978  79.9136 280.1967 15.08837820 55761,6917.887,95.438,540.429,539.075,0.0
53864.0,STARLINK-4779,PAYLOAD,2023-09-15 13:30:32,15.08845329,0.0001159,53.2185,31.4492,78.7464,281.3658,0.00019643,2.84e-05,0.0,0 STARLINK-4779,1 53864U 22114AY  23258.56287246  .00002840  00000-0  19643-3 0  9996,2 53864  53.2185  31.4492 0001159  78.7464 281.3658 15.08845329 56321,6917.864,95.437,540.531,538.927,0.0
53864.0,STARLINK-4779,PAYLOAD,2023-09-15 16:41:18,15.0885033,0.0001174,53.2177,30.8537,73.8978,286.2144,0.00040012,6.088e-05,0.0,0 STARLINK-4779,1 53864U 22114AY  23258.69535204  .00006088  00000-0  40012-3 0  9992,2 53864  53.2177  30.8537 0001174  73.8978 286.2144 15.08850330 55802,6917.849,95.437,540.526,538.902,0.0
53864.0,STARLINK-4779,PAYLOAD,2023-09-16 08:35:10,15.08839728,0.0001359,53.2183,27.8822,65.1714,294.9419,0.00035527,5.371e-05,0.0,0 STARLINK-4779,1 53864U 22114AY  23259.35775874  .00005371  00000-0  35527-3 0  9994,2 53864  53.2183  27.8822 0001359  65.1714 294.9419 15.08839728 55909,6917.881,95.438,540.686,538.806,0.0
53864.0,STARLINK-4779,PAYLOAD,2023-09-16 13:21:19,15.08838282,0.0001264,53.2182,26.9885,74.1925,285.9206,0.00022007,3.216e-05,0.0,0 STARLINK-4779,1 53864U 22114AY  23259.55647875  .00003216  00000-0  22007-3 0  9990,2 53864  53.2182  26.9885 0001264  74.1925 285.9206 15.08838282 56477,6917.886,95.438,540.625,538.876,0.0
53864.0,STARLINK-4779,PAYLOAD,2023-09-17 13:12:06,15.08850234,0.0001342,53.2183,22.5285,76.6728,283.4413,0.00015261,2.142e-05,0.0,0 STARLINK-4779,1 53864U 22114AY  23260.55007334  .00002142  00000-0  15261-3 0  9993,2 53864  53.2183  22.5285 0001342  76.6728 283.4413 15.08850234 56620,6917.849,95.437,540.642,538.786,0.0
53864.0,STARLINK-4779,PAYLOAD,2023-09-17 14:47:29,15.08853465,0.0001292,53.2184,22.231,76.7047,283.4089,0.0001673,2.377e-05,0.0,0 STARLINK-4779,1 53864U 22114AY  23260.61631134  .00002377  00000-0  16730-3 0  9993,2 53864  53.2184  22.2310 0001292  76.7047 283.4089 15.08853465 56095,6917.839,95.437,540.598,538.81,0.0
53864.0,STARLINK-4779,PAYLOAD,2023-09-18 08:16:44,15.08842215,0.000125,53.2177,18.9602,71.5544,288.5584,0.00014227,1.977e-05,0.0,0 STARLINK-4779,1 53864U 22114AY  23261.34495672  .00001977  00000-0  14227-3 0  9993,2 53864  53.2177  18.9602 0001250  71.5544 288.5584 15.08842215 56202,6917.874,95.437,540.603,538.874,0.0
53864.0,STARLINK-4779,PAYLOAD,2023-09-18 13:02:53,15.08844908,0.0001405,53.2189,18.0693,85.7976,274.3177,0.00015388,2.162e-05,0.0,0 STARLINK-4779,1 53864U 22114AY  23261.54367512  .00002162  00000-0  15388-3 0  9992,2 53864  53.2189  18.0693 0001405  85.7976 274.3177 15.08844908 56778,6917.865,95.437,540.702,538.758,0.0
53864.0,STARLINK-4779,PAYLOAD,2023-09-18 19:24:25,15.0885489,0.0001354,53.2189,16.8764,103.8476,256.2667,0.00028515,4.255e-05,0.0,0 STARLINK-4779,1 53864U 22114AY  23261.80862822  .00004255  00000-0  28515-3 0  9996,2 53864  53.2189  16.8764 0001354 103.8476 256.2667 15.08854890 56812,6917.835,95.437,540.637,538.763,0.0
53864.0,STARLINK-4779,PAYLOAD,2023-09-19 08:07:30,15.08841142,0.0001031,53.2194,14.5014,78.2458,281.865,-1.2051e-05,-4.8e-06,0.0,0 STARLINK-4779,1 53864U 22114AY  23262.33855227 -.00000480  00000-0 -12051-4 0  9993,2 53864  53.2194  14.5014 0001031  78.2458 281.8650 15.08841142 56359,6917.877,95.437,540.455,539.029,0.0
53864.0,STARLINK-4779,PAYLOAD,2023-09-19 14:29:02,15.08862429,0.0001483,53.2193,13.3105,99.1566,260.9594,0.00037989,5.767e-05,0.0,0 STARLINK-4779,1 53864U 22114AY  23262.60350299  .00005767  00000-0  37989-3 0  9999,2 53864  53.2193  13.3105 0001483  99.1566 260.9594 15.08862429 56399,6917.812,95.436,540.703,538.651,0.0
53864.0,STARLINK-4779,PAYLOAD,2023-09-20 12:44:28,15.08817356,0.0001382,53.2185,9.1452,89.3379,270.7772,-0.00040262,-6.686e-05,0.0,0 STARLINK-4779,1 53864U 22114AY  23263.53088236 -.00006686  00000-0 -40262-3 0  9992,2 53864  53.2185   9.1452 0001382  89.3379 270.7772 15.08817356 56531,6917.95,95.439,540.771,538.859,0.0
53864.0,STARLINK-4779,PAYLOAD,2023-09-20 14:19:51,15.08817939,0.0001265,53.2179,8.851,67.0237,293.0888,-0.00034729,-5.807e-05,0.0,0 STARLINK-4779,1 53864U 22114AY  23263.59712459 -.00005807  00000-0 -34729-3 0  9994,2 53864  53.2179   8.8510 0001265  67.0237 293.0888 15.08817939 57085,6917.948,95.439,540.688,538.938,0.0
53864.0,STARLINK-4779,PAYLOAD,2023-09-21 07:49:06,15.08833045,0.0001317,53.217,5.5779,58.3676,301.7444,0.00027298,4.058e-05,0.0,0 STARLINK-4779,1 53864U 22114AY  23264.32576760  .00004058  00000-0  27298-3 0  9997,2 53864  53.2170   5.5779 0001317  58.3676 301.7444 15.08833045 56658,6917.902,95.438,540.678,538.856,0.0
53864.0,STARLINK-4779,PAYLOAD,2023-09-21 12:35:15,15.08844902,0.0001284,53.217,4.6867,64.4742,295.6383,0.00057112,8.814e-05,0.0,0 STARLINK-4779,1 53864U 22114AY  23264.52448465  .00008814  00000-0  57112-3 0  9991,2 53864  53.2170   4.6867 0001284  64.4742 295.6383 15.08844902 57222,6917.865,95.437,540.619,538.842,0.0
